{
  "type": "FeatureCollection",
  "features": [
    {
      "type": "Feature",
      "properties": {
        "norad_id": 34079,
        "name": "IRIDIUM 33 DEB",
        "group": "iridium-33-debris",
        "lat": 36.79174588601986,
        "lon": 6.886112262838709,
        "alt_km": 613.6200349213332,
        "timestamp": "2025-12-22T14:45:57.790177+00:00",
        "meta_object_name": "IRIDIUM 33 DEB",
        "meta_object_id": "1997-051CN",
        "meta_epoch": "2025-12-21T13:15:26.349984",
        "meta_mean_motion": 14.83733705,
        "meta_eccentricity": 0.000457,
        "meta_inclination": 86.3769,
        "meta_ra_of_asc_node": 4.6535,
        "meta_arg_of_pericenter": 336.3629,
        "meta_mean_anomaly": 147.0439,
        "meta_ephemeris_type": 0,
        "meta_classification_type": "U",
        "meta_norad_cat_id": 34079,
        "meta_element_set_no": 999,
        "meta_rev_at_epoch": 89108,
        "meta_bstar": 0.0012935,
        "meta_mean_motion_dot": 0.00010729,
        "meta_mean_motion_ddot": 0,
        "tle_line1": "1 34079U 97051CN  25355.55238831  .00010729  00000+0  12935-2 0  9990",
        "tle_line2": "2 34079  86.3769   4.6535 0004570 336.3629 147.0439 14.83733705891080"
      },
      "geometry": {
        "type": "Point",
        "coordinates": [
          6.886112262838709,
          36.79174588601986
        ]
      }
    },
    {
      "type": "Feature",
      "properties": {
        "norad_id": 34088,
        "name": "IRIDIUM 33 DEB",
        "group": "iridium-33-debris",
        "lat": 50.211637074743834,
        "lon": 30.53985957074995,
        "alt_km": 588.2983183324841,
        "timestamp": "2025-12-22T14:45:57.790188+00:00",
        "meta_object_name": "IRIDIUM 33 DEB",
        "meta_object_id": "1997-051CX",
        "meta_epoch": "2025-12-21T19:59:46.870368",
        "meta_mean_motion": 14.91753084,
        "meta_eccentricity": 0.00067081,
        "meta_inclination": 86.3838,
        "meta_ra_of_asc_node": 26.5444,
        "meta_arg_of_pericenter": 148.1548,
        "meta_mean_anomaly": 25.1344,
        "meta_ephemeris_type": 0,
        "meta_classification_type": "U",
        "meta_norad_cat_id": 34088,
        "meta_element_set_no": 999,
        "meta_rev_at_epoch": 88877,
        "meta_bstar": 0.001888124,
        "meta_mean_motion_dot": 0.00019078,
        "meta_mean_motion_ddot": 0,
        "tle_line1": "1 34088U 97051CX  25355.83318137  .00019078  00000+0  18881-2 0  9991",
        "tle_line2": "2 34088  86.3838  26.5444 0006708 148.1548  25.1344 14.91753084888777"
      },
      "geometry": {
        "type": "Point",
        "coordinates": [
          30.53985957074995,
          50.211637074743834
        ]
      }
    },
    {
      "type": "Feature",
      "properties": {
        "norad_id": 34091,
        "name": "IRIDIUM 33 DEB",
        "group": "iridium-33-debris",
        "lat": -80.80209078382616,
        "lon": -94.41622404576117,
        "alt_km": 604.9647766240796,
        "timestamp": "2025-12-22T14:45:57.790198+00:00",
        "meta_object_name": "IRIDIUM 33 DEB",
        "meta_object_id": "1997-051DA",
        "meta_epoch": "2025-12-22T03:52:05.601216",
        "meta_mean_motion": 14.82461655,
        "meta_eccentricity": 0.00342419,
        "meta_inclination": 86.3415,
        "meta_ra_of_asc_node": 62.5176,
        "meta_arg_of_pericenter": 259.4997,
        "meta_mean_anomaly": 100.2366,
        "meta_ephemeris_type": 0,
        "meta_classification_type": "U",
        "meta_norad_cat_id": 34091,
        "meta_element_set_no": 999,
        "meta_rev_at_epoch": 88006,
        "meta_bstar": 0.0054457113,
        "meta_mean_motion_dot": 0.00044372,
        "meta_mean_motion_ddot": 0,
        "tle_line1": "1 34091U 97051DA  25356.16117594  .00044372  00000+0  54457-2 0  9990",
        "tle_line2": "2 34091  86.3415  62.5176 0034241 259.4997 100.2366 14.82461655880064"
      },
      "geometry": {
        "type": "Point",
        "coordinates": [
          -94.41622404576117,
          -80.80209078382616
        ]
      }
    },
    {
      "type": "Feature",
      "properties": {
        "norad_id": 34097,
        "name": "IRIDIUM 33 DEB",
        "group": "iridium-33-debris",
        "lat": -85.53901672701647,
        "lon": -124.52961639991753,
        "alt_km": 755.4117105611685,
        "timestamp": "2025-12-22T14:45:57.790209+00:00",
        "meta_object_name": "IRIDIUM 33 DEB",
        "meta_object_id": "1997-051DG",
        "meta_epoch": "2025-12-21T17:25:54.708096",
        "meta_mean_motion": 14.34842899,
        "meta_eccentricity": 0.00816917,
        "meta_inclination": 86.1999,
        "meta_ra_of_asc_node": 357.4405,
        "meta_arg_of_pericenter": 332.7773,
        "meta_mean_anomaly": 26.9151,
        "meta_ephemeris_type": 0,
        "meta_classification_type": "U",
        "meta_norad_cat_id": 34097,
        "meta_element_set_no": 999,
        "meta_rev_at_epoch": 87248,
        "meta_bstar": 0.0011552896,
        "meta_mean_motion_dot": 3.423e-05,
        "meta_mean_motion_ddot": 0,
        "tle_line1": "1 34097U 97051DG  25355.72632764  .00003423  00000+0  11553-2 0  9990",
        "tle_line2": "2 34097  86.1999 357.4405 0081691 332.7773  26.9151 14.34842899872487"
      },
      "geometry": {
        "type": "Point",
        "coordinates": [
          -124.52961639991753,
          -85.53901672701647
        ]
      }
    },
    {
      "type": "Feature",
      "properties": {
        "norad_id": 34145,
        "name": "IRIDIUM 33 DEB",
        "group": "iridium-33-debris",
        "lat": 83.31798751467775,
        "lon": 2.5638246256024804,
        "alt_km": 706.5125523518045,
        "timestamp": "2025-12-22T14:45:57.790220+00:00",
        "meta_object_name": "IRIDIUM 33 DEB",
        "meta_object_id": "1997-051DY",
        "meta_epoch": "2025-12-22T04:23:22.180704",
        "meta_mean_motion": 14.42352181,
        "meta_eccentricity": 0.00556524,
        "meta_inclination": 86.2122,
        "meta_ra_of_asc_node": 328.3204,
        "meta_arg_of_pericenter": 63.8456,
        "meta_mean_anomaly": 296.8453,
        "meta_ephemeris_type": 0,
        "meta_classification_type": "U",
        "meta_norad_cat_id": 34145,
        "meta_element_set_no": 999,
        "meta_rev_at_epoch": 87774,
        "meta_bstar": 0.0011263527,
        "meta_mean_motion_dot": 3.81e-05,
        "meta_mean_motion_ddot": 0,
        "tle_line1": "1 34145U 97051DY  25356.18289561  .00003810  00000+0  11264-2 0  9997",
        "tle_line2": "2 34145  86.2122 328.3204 0055652  63.8456 296.8453 14.42352181877748"
      },
      "geometry": {
        "type": "Point",
        "coordinates": [
          2.5638246256024804,
          83.31798751467775
        ]
      }
    },
    {
      "type": "Feature",
      "properties": {
        "norad_id": 34146,
        "name": "IRIDIUM 33 DEB",
        "group": "iridium-33-debris",
        "lat": -37.98941824356115,
        "lon": -17.472327566389662,
        "alt_km": 748.2919764242088,
        "timestamp": "2025-12-22T14:45:57.790231+00:00",
        "meta_object_name": "IRIDIUM 33 DEB",
        "meta_object_id": "1997-051DZ",
        "meta_epoch": "2025-12-22T06:57:02.081088",
        "meta_mean_motion": 14.4910725,
        "meta_eccentricity": 0.00265551,
        "meta_inclination": 86.2838,
        "meta_ra_of_asc_node": 345.581,
        "meta_arg_of_pericenter": 188.5022,
        "meta_mean_anomaly": 235.5645,
        "meta_ephemeris_type": 0,
        "meta_classification_type": "U",
        "meta_norad_cat_id": 34146,
        "meta_element_set_no": 999,
        "meta_rev_at_epoch": 88245,
        "meta_bstar": 0.00084567374,
        "meta_mean_motion_dot": 3.247e-05,
        "meta_mean_motion_ddot": 0,
        "tle_line1": "1 34146U 97051DZ  25356.28960742  .00003247  00000+0  84567-3 0  9997",
        "tle_line2": "2 34146  86.2838 345.5810 0026555 188.5022 235.5645 14.49107250882450"
      },
      "geometry": {
        "type": "Point",
        "coordinates": [
          -17.472327566389662,
          -37.98941824356115
        ]
      }
    },
    {
      "type": "Feature",
      "properties": {
        "norad_id": 34159,
        "name": "IRIDIUM 33 DEB",
        "group": "iridium-33-debris",
        "lat": 21.292797001459405,
        "lon": 45.45605358334195,
        "alt_km": 774.878520200763,
        "timestamp": "2025-12-22T14:45:57.790241+00:00",
        "meta_object_name": "IRIDIUM 33 DEB",
        "meta_object_id": "1997-051EN",
        "meta_epoch": "2025-12-22T02:58:50.860992",
        "meta_mean_motion": 14.38515401,
        "meta_eccentricity": 0.00260752,
        "meta_inclination": 86.3498,
        "meta_ra_of_asc_node": 44.2398,
        "meta_arg_of_pericenter": 254.6532,
        "meta_mean_anomaly": 105.1785,
        "meta_ephemeris_type": 0,
        "meta_classification_type": "U",
        "meta_norad_cat_id": 34159,
        "meta_element_set_no": 999,
        "meta_rev_at_epoch": 88094,
        "meta_bstar": 0.00034381361,
        "meta_mean_motion_dot": 1.073e-05,
        "meta_mean_motion_ddot": 0,
        "tle_line1": "1 34159U 97051EN  25356.12419978  .00001073  00000+0  34381-3 0  9998",
        "tle_line2": "2 34159  86.3498  44.2398 0026075 254.6532 105.1785 14.38515401880947"
      },
      "geometry": {
        "type": "Point",
        "coordinates": [
          45.45605358334195,
          21.292797001459405
        ]
      }
    }
  ]
}